{
  "type": "FeatureCollection",
  "features": [
    {
      "type": "Feature",
      "properties": {
        "norad_id": 41948,
        "name": "CARTOSAT-2D",
        "group": "resource",
        "lat": -35.66560303084046,
        "lon": 62.864304344944074,
        "alt_km": 517.9023200019246,
        "timestamp": "2025-12-26T04:40:05.445683+00:00",
        "meta_object_name": "CARTOSAT-2D",
        "meta_object_id": "2017-008A",
        "meta_epoch": "2025-12-25T22:30:12.041568",
        "meta_mean_motion": 15.19193653,
        "meta_eccentricity": 0.00054519,
        "meta_inclination": 97.4368,
        "meta_ra_of_asc_node": 57.2325,
        "meta_arg_of_pericenter": 115.4408,
        "meta_mean_anomaly": 244.7391,
        "meta_ephemeris_type": 0,
        "meta_classification_type": "U",
        "meta_norad_cat_id": 41948,
        "meta_element_set_no": 999,
        "meta_rev_at_epoch": 49127,
        "meta_bstar": 0.00019843179,
        "meta_mean_motion_dot": 4.109e-05,
        "meta_mean_motion_ddot": 0,
        "tle_line1": "1 41948U 17008A   25359.93763937  .00004109  00000+0  19843-3 0  9994",
        "tle_line2": "2 41948  97.4368  57.2325 0005451 115.4408 244.7391 15.19193653491273"
      },
      "geometry": {
        "type": "Point",
        "coordinates": [
          62.864304344944074,
          -35.66560303084046
        ]
      }
    },
    {
      "type": "Feature",
      "properties": {
        "norad_id": 42063,
        "name": "SENTINEL-2B",
        "group": "resource",
        "lat": -30.505644315020493,
        "lon": 77.54774044135706,
        "alt_km": 795.3670387468364,
        "timestamp": "2025-12-26T04:40:05.445694+00:00",
        "meta_object_name": "SENTINEL-2B",
        "meta_object_id": "2017-013A",
        "meta_epoch": "2025-12-25T22:05:56.192928",
        "meta_mean_motion": 14.30815194,
        "meta_eccentricity": 0.00011839,
        "meta_inclination": 98.5697,
        "meta_ra_of_asc_node": 72.1809,
        "meta_arg_of_pericenter": 89.5515,
        "meta_mean_anomaly": 270.5803,
        "meta_ephemeris_type": 0,
        "meta_classification_type": "U",
        "meta_norad_cat_id": 42063,
        "meta_element_set_no": 999,
        "meta_rev_at_epoch": 45986,
        "meta_bstar": 1.0555467e-05,
        "meta_mean_motion_dot": -1.6e-07,
        "meta_mean_motion_ddot": 0,
        "tle_line1": "1 42063U 17013A   25359.92078927 -.00000016  00000+0  10555-4 0  9992",
        "tle_line2": "2 42063  98.5697  72.1809 0001183  89.5515 270.5803 14.30815194459867"
      },
      "geometry": {
        "type": "Point",
        "coordinates": [
          77.54774044135706,
          -30.505644315020493
        ]
      }
    },
    {
      "type": "Feature",
      "properties": {
        "norad_id": 42767,
        "name": "CARTOSAT-2E",
        "group": "resource",
        "lat": -52.85795040647591,
        "lon": -132.34963524745925,
        "alt_km": 514.5317613392426,
        "timestamp": "2025-12-26T04:40:05.445704+00:00",
        "meta_object_name": "CARTOSAT-2E",
        "meta_object_id": "2017-036C",
        "meta_epoch": "2025-12-25T22:54:05.384736",
        "meta_mean_motion": 15.19199034,
        "meta_eccentricity": 0.00025401,
        "meta_inclination": 97.4537,
        "meta_ra_of_asc_node": 57.3666,
        "meta_arg_of_pericenter": 169.628,
        "meta_mean_anomaly": 190.5008,
        "meta_ephemeris_type": 0,
        "meta_classification_type": "U",
        "meta_norad_cat_id": 42767,
        "meta_element_set_no": 999,
        "meta_rev_at_epoch": 47184,
        "meta_bstar": 0.00012230974,
        "meta_mean_motion_dot": 2.506e-05,
        "meta_mean_motion_ddot": 0,
        "tle_line1": "1 42767U 17036C   25359.95422899  .00002506  00000+0  12231-3 0  9999",
        "tle_line2": "2 42767  97.4537  57.3666 0002540 169.6280 190.5008 15.19199034471848"
      },
      "geometry": {
        "type": "Point",
        "coordinates": [
          -132.34963524745925,
          -52.85795040647591
        ]
      }
    },
    {
      "type": "Feature",
      "properties": {
        "norad_id": 42920,
        "name": "FORMOSAT-5",
        "group": "resource",
        "lat": -38.65747110240922,
        "lon": -112.41754995340466,
        "alt_km": 723.9529882649294,
        "timestamp": "2025-12-26T04:40:05.445714+00:00",
        "meta_object_name": "FORMOSAT-5",
        "meta_object_id": "2017-049A",
        "meta_epoch": "2025-12-25T22:41:41.905824",
        "meta_mean_motion": 14.50767971,
        "meta_eccentricity": 0.00098478,
        "meta_inclination": 98.2437,
        "meta_ra_of_asc_node": 73.9983,
        "meta_arg_of_pericenter": 256.2867,
        "meta_mean_anomaly": 103.7232,
        "meta_ephemeris_type": 0,
        "meta_classification_type": "U",
        "meta_norad_cat_id": 42920,
        "meta_element_set_no": 999,
        "meta_rev_at_epoch": 44155,
        "meta_bstar": 7.0146501e-05,
        "meta_mean_motion_dot": 2.32e-06,
        "meta_mean_motion_ddot": 0,
        "tle_line1": "1 42920U 17049A   25359.94562391  .00000232  00000+0  70147-4 0  9990",
        "tle_line2": "2 42920  98.2437  73.9983 0009847 256.2867 103.7232 14.50767971441559"
      },
      "geometry": {
        "type": "Point",
        "coordinates": [
          -112.41754995340466,
          -38.65747110240922
        ]
      }
    },
    {
      "type": "Feature",
      "properties": {
        "norad_id": 42969,
        "name": "SENTINEL-5P",
        "group": "resource",
        "lat": -0.7329722465165771,
        "lon": 118.54701166035426,
        "alt_km": 829.9931797889485,
        "timestamp": "2025-12-26T04:40:05.445725+00:00",
        "meta_object_name": "SENTINEL-5P",
        "meta_object_id": "2017-064A",
        "meta_epoch": "2025-12-25T17:40:12.396576",
        "meta_mean_motion": 14.19520693,
        "meta_eccentricity": 0.00010643,
        "meta_inclination": 98.7802,
        "meta_ra_of_asc_node": 298.2061,
        "meta_arg_of_pericenter": 90.9871,
        "meta_mean_anomaly": 269.1427,
        "meta_ephemeris_type": 0,
        "meta_classification_type": "U",
        "meta_norad_cat_id": 42969,
        "meta_element_set_no": 999,
        "meta_rev_at_epoch": 42495,
        "meta_bstar": 6.8608624e-05,
        "meta_mean_motion_dot": 1e-06,
        "meta_mean_motion_ddot": 0,
        "tle_line1": "1 42969U 17064A   25359.73625459  .00000100  00000+0  68609-4 0  9996",
        "tle_line2": "2 42969  98.7802 298.2061 0001064  90.9871 269.1427 14.19520693424954"
      },
      "geometry": {
        "type": "Point",
        "coordinates": [
          118.54701166035426,
          -0.7329722465165771
        ]
      }
    },
    {
      "type": "Feature",
      "properties": {
        "norad_id": 42987,
        "name": "SKYSAT-C11",
        "group": "resource",
        "lat": 13.655824858843953,
        "lon": 136.21103473504255,
        "alt_km": 423.55839988953903,
        "timestamp": "2025-12-26T04:40:05.445736+00:00",
        "meta_object_name": "SKYSAT-C11",
        "meta_object_id": "2017-068A",
        "meta_epoch": "2025-12-25T22:24:11.990304",
        "meta_mean_motion": 15.48016298,
        "meta_eccentricity": 0.00011551,
        "meta_inclination": 97.4151,
        "meta_ra_of_asc_node": 137.7566,
        "meta_arg_of_pericenter": 96.2263,
        "meta_mean_anomaly": 263.9118,
        "meta_ephemeris_type": 0,
        "meta_classification_type": "U",
        "meta_norad_cat_id": 42987,
        "meta_element_set_no": 999,
        "meta_rev_at_epoch": 45635,
        "meta_bstar": 0.00044194766,
        "meta_mean_motion_dot": 0.00023051,
        "meta_mean_motion_ddot": 0,
        "tle_line1": "1 42987U 17068A   25359.93347211  .00023051  00000+0  44195-3 0  9992",
        "tle_line2": "2 42987  97.4151 137.7566 0001155  96.2263 263.9118 15.48016298456351"
      },
      "geometry": {
        "type": "Point",
        "coordinates": [
          136.21103473504255,
          13.655824858843953
        ]
      }
    },
    {
      "type": "Feature",
      "properties": {
        "norad_id": 42988,
        "name": "SKYSAT-C10",
        "group": "resource",
        "lat": 60.583692470909824,
        "lon": 117.70698478311881,
        "alt_km": 460.76313704422137,
        "timestamp": "2025-12-26T04:40:05.445746+00:00",
        "meta_object_name": "SKYSAT-C10",
        "meta_object_id": "2017-068B",
        "meta_epoch": "2025-12-24T19:29:00.783168",
        "meta_mean_motion": 15.32071049,
        "meta_eccentricity": 0.00043105,
        "meta_inclination": 97.4272,
        "meta_ra_of_asc_node": 129.6977,
        "meta_arg_of_pericenter": 75.127,
        "meta_mean_anomaly": 285.0448,
        "meta_ephemeris_type": 0,
        "meta_classification_type": "U",
        "meta_norad_cat_id": 42988,
        "meta_element_set_no": 999,
        "meta_rev_at_epoch": 45564,
        "meta_bstar": 0.00040464637,
        "meta_mean_motion_dot": 0.00012461,
        "meta_mean_motion_ddot": 0,
        "tle_line1": "1 42988U 17068B   25358.81181462  .00012461  00000+0  40465-3 0  9992",
        "tle_line2": "2 42988  97.4272 129.6977 0004310  75.1270 285.0448 15.32071049455642"
      },
      "geometry": {
        "type": "Point",
        "coordinates": [
          117.70698478311881,
          60.583692470909824
        ]
      }
    }
  ]
}